{
  "type": "FeatureCollection",
  "features": [
    {
      "type": "Feature",
      "properties": {
        "norad_id": 36585,
        "name": "GPS BIIF-1  (PRN 25)",
        "group": "gnss",
        "lat": -54.29493784810392,
        "lon": 125.21928807807835,
        "alt_km": 20493.159791550126,
        "timestamp": "2025-12-11T20:41:15.323641+00:00",
        "meta_object_name": "GPS BIIF-1  (PRN 25)",
        "meta_object_id": "2010-022A",
        "meta_epoch": "2025-12-11T05:47:33.116064",
        "meta_mean_motion": 2.00553131,
        "meta_eccentricity": 0.01260483,
        "meta_inclination": 54.3003,
        "meta_ra_of_asc_node": 216.1344,
        "meta_arg_of_pericenter": 65.0548,
        "meta_mean_anomaly": 116.9692,
        "meta_ephemeris_type": 0,
        "meta_classification_type": "U",
        "meta_norad_cat_id": 36585,
        "meta_element_set_no": 999,
        "meta_rev_at_epoch": 11382,
        "meta_bstar": 0,
        "meta_mean_motion_dot": 1.3e-07,
        "meta_mean_motion_ddot": 0,
        "tle_line1": "1 36585U 10022A   25345.24135551  .00000013  00000+0  00000+0 0  9999",
        "tle_line2": "2 36585  54.3003 216.1344 0126048  65.0548 116.9692  2.00553131113823"
      },
      "geometry": {
        "type": "Point",
        "coordinates": [
          125.21928807807835,
          -54.29493784810392
        ]
      }
    },
    {
      "type": "Feature",
      "properties": {
        "norad_id": 36828,
        "name": "BEIDOU-2 IGSO-1 (C06)",
        "group": "gnss",
        "lat": -20.165062801756672,
        "lon": 149.3111746025895,
        "alt_km": 35891.75481008027,
        "timestamp": "2025-12-11T20:41:15.323653+00:00",
        "meta_object_name": "BEIDOU-2 IGSO-1 (C06)",
        "meta_object_id": "2010-036A",
        "meta_epoch": "2025-12-11T10:35:37.696992",
        "meta_mean_motion": 1.00276405,
        "meta_eccentricity": 0.00512004,
        "meta_inclination": 54.2848,
        "meta_ra_of_asc_node": 164.659,
        "meta_arg_of_pericenter": 215.8299,
        "meta_mean_anomaly": 326.6949,
        "meta_ephemeris_type": 0,
        "meta_classification_type": "U",
        "meta_norad_cat_id": 36828,
        "meta_element_set_no": 999,
        "meta_rev_at_epoch": 5621,
        "meta_bstar": 0,
        "meta_mean_motion_dot": -5.2e-07,
        "meta_mean_motion_ddot": 0,
        "tle_line1": "1 36828U 10036A   25345.44140853 -.00000052  00000+0  00000+0 0  9991",
        "tle_line2": "2 36828  54.2848 164.6590 0051200 215.8299 326.6949  1.00276405 56213"
      },
      "geometry": {
        "type": "Point",
        "coordinates": [
          149.3111746025895,
          -20.165062801756672
        ]
      }
    },
    {
      "type": "Feature",
      "properties": {
        "norad_id": 37210,
        "name": "BEIDOU-2 G4 (C04)",
        "group": "gnss",
        "lat": 2.715352286978293,
        "lon": -168.87530255280697,
        "alt_km": 35769.55398966659,
        "timestamp": "2025-12-11T20:41:15.323665+00:00",
        "meta_object_name": "BEIDOU-2 G4 (C04)",
        "meta_object_id": "2010-057A",
        "meta_epoch": "2025-12-11T14:16:18.193728",
        "meta_mean_motion": 1.00271431,
        "meta_eccentricity": 0.0010933,
        "meta_inclination": 3.1821,
        "meta_ra_of_asc_node": 69.9412,
        "meta_arg_of_pericenter": 190.619,
        "meta_mean_anomaly": 194.1423,
        "meta_ephemeris_type": 0,
        "meta_classification_type": "U",
        "meta_norad_cat_id": 37210,
        "meta_element_set_no": 999,
        "meta_rev_at_epoch": 5541,
        "meta_bstar": 0,
        "meta_mean_motion_dot": -1.05e-06,
        "meta_mean_motion_ddot": 0,
        "tle_line1": "1 37210U 10057A   25345.59465502 -.00000105  00000+0  00000+0 0  9996",
        "tle_line2": "2 37210   3.1821  69.9412 0010933 190.6190 194.1423  1.00271431 55411"
      },
      "geometry": {
        "type": "Point",
        "coordinates": [
          -168.87530255280697,
          2.715352286978293
        ]
      }
    },
    {
      "type": "Feature",
      "properties": {
        "norad_id": 37256,
        "name": "BEIDOU-2 IGSO-2 (C07)",
        "group": "gnss",
        "lat": -31.440454842820586,
        "lon": 127.64081932608019,
        "alt_km": 35581.25187135518,
        "timestamp": "2025-12-11T20:41:15.323677+00:00",
        "meta_object_name": "BEIDOU-2 IGSO-2 (C07)",
        "meta_object_id": "2010-068A",
        "meta_epoch": "2025-12-03T17:22:36.027840",
        "meta_mean_motion": 1.0028872,
        "meta_eccentricity": 0.00492449,
        "meta_inclination": 47.9042,
        "meta_ra_of_asc_node": 274.2614,
        "meta_arg_of_pericenter": 216.1411,
        "meta_mean_anomaly": 310.24,
        "meta_ephemeris_type": 0,
        "meta_classification_type": "U",
        "meta_norad_cat_id": 37256,
        "meta_element_set_no": 999,
        "meta_rev_at_epoch": 5483,
        "meta_bstar": 0,
        "meta_mean_motion_dot": -2.25e-06,
        "meta_mean_motion_ddot": 0,
        "tle_line1": "1 37256U 10068A   25337.72402810 -.00000225  00000+0  00000+0 0  9990",
        "tle_line2": "2 37256  47.9042 274.2614 0049244 216.1411 310.2400  1.00288720 54834"
      },
      "geometry": {
        "type": "Point",
        "coordinates": [
          127.64081932608019,
          -31.440454842820586
        ]
      }
    },
    {
      "type": "Feature",
      "properties": {
        "norad_id": 37384,
        "name": "BEIDOU-2 IGSO-3 (C08)",
        "group": "gnss",
        "lat": 61.50652734926508,
        "lon": 145.29774645272568,
        "alt_km": 35783.05019392992,
        "timestamp": "2025-12-11T20:41:15.323690+00:00",
        "meta_object_name": "BEIDOU-2 IGSO-3 (C08)",
        "meta_object_id": "2011-013A",
        "meta_epoch": "2025-12-11T15:37:03.975744",
        "meta_mean_motion": 1.00271037,
        "meta_eccentricity": 0.00354451,
        "meta_inclination": 62.1431,
        "meta_ra_of_asc_node": 41.9258,
        "meta_arg_of_pericenter": 187.4472,
        "meta_mean_anomaly": 193.0762,
        "meta_ephemeris_type": 0,
        "meta_classification_type": "U",
        "meta_norad_cat_id": 37384,
        "meta_element_set_no": 999,
        "meta_rev_at_epoch": 5378,
        "meta_bstar": 0,
        "meta_mean_motion_dot": -1.96e-06,
        "meta_mean_motion_ddot": 0,
        "tle_line1": "1 37384U 11013A   25345.65074046 -.00000196  00000+0  00000+0 0  9997",
        "tle_line2": "2 37384  62.1431  41.9258 0035445 187.4472 193.0762  1.00271037 53789"
      },
      "geometry": {
        "type": "Point",
        "coordinates": [
          145.29774645272568,
          61.50652734926508
        ]
      }
    },
    {
      "type": "Feature",
      "properties": {
        "norad_id": 37605,
        "name": "GSAT-8 (GAGAN/PRN 127)",
        "group": "gnss",
        "lat": 0.07596467401286351,
        "lon": 86.20892678744644,
        "alt_km": 35823.51114800262,
        "timestamp": "2025-12-11T20:41:15.323702+00:00",
        "meta_object_name": "GSAT-8 (GAGAN/PRN 127)",
        "meta_object_id": "2011-022A",
        "meta_epoch": "2025-12-11T13:46:28.550784",
        "meta_mean_motion": 1.00270968,
        "meta_eccentricity": 0.00087991,
        "meta_inclination": 1.6472,
        "meta_ra_of_asc_node": 84.1984,
        "meta_arg_of_pericenter": 183.1454,
        "meta_mean_anomaly": 74.8896,
        "meta_ephemeris_type": 0,
        "meta_classification_type": "U",
        "meta_norad_cat_id": 37605,
        "meta_element_set_no": 999,
        "meta_rev_at_epoch": 5133,
        "meta_bstar": 0,
        "meta_mean_motion_dot": 9.2e-07,
        "meta_mean_motion_ddot": 0,
        "tle_line1": "1 37605U 11022A   25345.57394156  .00000092  00000+0  00000+0 0  9995",
        "tle_line2": "2 37605   1.6472  84.1984 0008799 183.1454  74.8896  1.00270968 51333"
      },
      "geometry": {
        "type": "Point",
        "coordinates": [
          86.20892678744644,
          0.07596467401286351
        ]
      }
    },
    {
      "type": "Feature",
      "properties": {
        "norad_id": 37763,
        "name": "BEIDOU-2 IGSO-4 (C09)",
        "group": "gnss",
        "lat": -31.67544406121373,
        "lon": 141.27372055476113,
        "alt_km": 35772.893830376925,
        "timestamp": "2025-12-11T20:41:15.323713+00:00",
        "meta_object_name": "BEIDOU-2 IGSO-4 (C09)",
        "meta_object_id": "2011-038A",
        "meta_epoch": "2025-12-10T12:04:03.489024",
        "meta_mean_motion": 1.00284678,
        "meta_eccentricity": 0.01490344,
        "meta_inclination": 54.5829,
        "meta_ra_of_asc_node": 167.3658,
        "meta_arg_of_pericenter": 230.2355,
        "meta_mean_anomaly": 317.2212,
        "meta_ephemeris_type": 0,
        "meta_classification_type": "U",
        "meta_norad_cat_id": 37763,
        "meta_element_set_no": 999,
        "meta_rev_at_epoch": 5275,
        "meta_bstar": 0,
        "meta_mean_motion_dot": 3.6e-07,
        "meta_mean_motion_ddot": 0,
        "tle_line1": "1 37763U 11038A   25344.50281816  .00000036  00000+0  00000+0 0  9995",
        "tle_line2": "2 37763  54.5829 167.3658 0149034 230.2355 317.2212  1.00284678 52751"
      },
      "geometry": {
        "type": "Point",
        "coordinates": [
          141.27372055476113,
          -31.67544406121373
        ]
      }
    }
  ]
}